[{"OBJECT_NAME":"SCS-01 M","OBJECT_ID":"2025-100M","EPOCH":"2026-03-09T23:50:15.541152","MEAN_MOTION":15.31880861,"ECCENTRICITY":0.00078021,"INCLINATION":97.3725,"RA_OF_ASC_NODE":145.6908,"ARG_OF_PERICENTER":292.3826,"MEAN_ANOMALY":67.6588,"EPHEMERIS_TYPE":0,"CLASSIFICATION_TYPE":"U","NORAD_CAT_ID":63993,"ELEMENT_SET_NO":999,"REV_AT_EPOCH":4565,"BSTAR":0.0012010051,"MEAN_MOTION_DOT":0.00037061,"MEAN_MOTION_DDOT":0},{"OBJECT_NAME":"STARLINK-34759","OBJECT_ID":"2025-167U","EPOCH":"2026-03-09T06:16:19.705152","MEAN_MOTION":15.30188438,"ECCENTRICITY":0.00010963,"INCLINATION":53.1609,"RA_OF_ASC_NODE":28.6907,"ARG_OF_PERICENTER":80.5699,"MEAN_ANOMALY":279.5426,"EPHEMERIS_TYPE":0,"CLASSIFICATION_TYPE":"U","NORAD_CAT_ID":65096,"ELEMENT_SET_NO":999,"REV_AT_EPOCH":3341,"BSTAR":0.00093481697,"MEAN_MOTION_DOT":0.0002742,"MEAN_MOTION_DDOT":0}]
